2022-023F               
1 51951U 22023F   26176.18154791  .00015608  00000+0  61582-3 0  9992
2 51951  63.4447 246.3020 0131317 342.1614  17.4909 15.18067366238922
MERIDIAN 10             
1 52145U 22030A   26175.94551501  .00000171  00000+0  00000+0 0  9992
2 52145  62.6784 139.9530 6786059 272.8511  17.6320  2.00612785 31182
OMNI-L1                 
1 52157U 22033A   26176.14186134  .00001862  00000+0  23678-3 0  9995
2 52157  97.8396 255.1646 0003888 252.5085 107.5704 14.82775364228639
ENMAP                   
1 52159U 22033C   26176.17037642 -.00000024  00000+0  38162-5 0  9995
2 52159  97.9792 258.3073 0001407  86.8934 273.2436 14.74991966227830
ARCSAT-1                
1 52161U 22033E   26176.17617103  .00014430  00000+0  22620-3 0  9999
2 52161  97.2755 268.5680 0005666 153.7883 206.3659 15.53792879236946
GLOBAL-18               
1 52196U 22034B   26174.84704565  .00014490  00000+0  29537-3 0  9999
2 52196  52.9804 224.8039 0003478 313.0227  47.0487 15.46495004237999
GAOFEN-3 03             
1 52200U 22035A   26176.20814650 -.00000104  00000+0 -18497-4 0  9998
2 52200  98.4066 184.6723 0001476 101.3212 258.8144 14.42215416222001
DAQI-1                  
1 52257U 22039A   26176.17658422  .00000348  00000+0  86163-4 0  9996
2 52257  98.1478 114.8632 0002483 215.5165 144.5869 14.57681906223109
BRO-6                   
1 52422U 22047AE  26176.20348553  .00043073  00000+0  73909-3 0  9999
2 52422  97.3399 267.4144 0004355  50.8163 309.3476 15.51050224232391
JILIN-1 GAOFEN 3D27     
1 52444U 22048B   26176.02754617  .00157986  00000+0  95696-3 0  9992
2 52444  97.5708 290.6832 0001762 305.4686  54.6415 15.77109869230716
JILIN-1 GAOFEN 3D28     
1 52445U 22048C   26176.13750778  .00197449  00000+0  10197-2 0  9999
2 52445  97.5649 290.9873 0001569 254.3628 105.7466 15.80569896230787
VIGORIDE-3              
1 52760U 22057AE  26176.01312542  .00005757  00000+0  21761-3 0  9999
2 52760  97.6607 316.1952 0009773  96.7804 263.4547 15.27352682226354
ION SCV-006             
1 52761U 22057AF  26176.19424569  .00014479  00000+0  30220-3 0  9993
2 52761  97.6103 325.2013 0018254  86.7906 273.5430 15.45467216227355
SHERPA-AC1              
1 52763U 22057AH  26175.94800568  .00007865  00000+0  22399-3 0  9993
2 52763  97.6691 325.4985 0008749  70.0719 290.1466 15.36361178226897
OMNI-L2                 
1 52771U 22057AR  26176.16053903  .00001298  00000+0  17204-3 0  9993
2 52771  97.4711 237.9831 0005231 305.2783  54.7941 14.81389228221578
STEP CUBE LAB-II        
1 52897U 22065D   26176.20462984  .00000529  00000+0  11181-3 0  9993
2 52897  98.2236 320.0820 0008742   9.1227 351.0132 14.63313014212679
RANDEV                  
1 52898U 22065E   26176.13522529  .00000538  00000+0  11258-3 0  9993
2 52898  98.2223 320.3680 0008101  10.2732 349.8634 14.63700692212412
SNUGLITE-II             
1 52899U 22065F   26176.16232943  .00000899  00000+0  17938-3 0  9996
2 52899  98.2211 320.9790 0007448   9.3131 350.8208 14.64360830212161
MIMAN                   
1 52900U 22065G   26174.96146301  .00000414  00000+0  92388-4 0  9993
2 52900  98.2268 317.4098 0007753  15.0292 345.1138 14.61849630211434
STARLINK-4362           
1 53043U 22077A   26176.17416536 -.00001195  00000+0 -78887-4 0  9997
2 53043  97.3165 354.7208 0001021 100.8948 259.2395 15.05662811217089
LARES-2                 
1 53105U 22080A   26174.27330575 -.00000027  00000+0  00000+0 0  9996
2 53105  70.1600 303.2417 0005276 334.6855  25.3415  6.38965134 92055
GREENCUBE (IO-117)      
1 53109U 22080E   26174.72102765 -.00000003  00000+0  00000+0 0  9992
2 53109  70.1445 295.9726 0008926 288.1418  71.8270  6.42583215 92482
STARLINK-4410           
1 53204U 22084R   26176.16667823  .00338236  00000+0  95745-2 0  9997
2 53204  97.6016 237.4719 0001403  75.4351 224.9585 15.34881201  5824
COSMOS 2558             
1 53323U 22089A   26176.14721757  .00138053  00000+0  85242-3 0  9996
2 53323  97.2253 280.5437 0001971 241.2966 118.8102 15.76730483219088
TECMS                   
1 53346U 22090A   26176.18290572  .00003840  00000+0  17388-3 0  9994
2 53346  97.3139 244.0658 0004252 151.3244 208.8226 15.21455621216028
DONGPO 02               
1 53452U 22098J   26176.18126571  .00134842  00000+0  85267-3 0  9995
2 53452  97.5524 308.0721 0003293 251.2491 108.8416 15.76189263216055
DONGPO 01               
1 53453U 22098K   26176.18330206  .00116130  00000+0  81478-3 0  9998
2 53453  97.5589 308.5798 0002380 225.1266 134.9805 15.73837923216010
STARLINK-4400           
1 53468U 22099D   26175.09007340 -.00000428  00000+0 -25739-4 0  9997
2 53468  97.3286 293.7814 0000762 101.6852 258.4461 15.05657325211985
STARLINK-4621           
1 53676U 22105AE  26176.15618936  .00027922  00000+0  19387-2 0  9999
2 53676  97.3177  54.8023 0002344 125.4852 234.6595 15.05510469209400
