OBJECT_NAME,OBJECT_ID,EPOCH,MEAN_MOTION,ECCENTRICITY,INCLINATION,RA_OF_ASC_NODE,ARG_OF_PERICENTER,MEAN_ANOMALY,EPHEMERIS_TYPE,CLASSIFICATION_TYPE,NORAD_CAT_ID,ELEMENT_SET_NO,REV_AT_EPOCH,BSTAR,MEAN_MOTION_DOT,MEAN_MOTION_DDOT
2022-023F,2022-023F,2026-06-25T04:21:25.739424,15.18067366,.0131317,63.4447,246.3020,342.1614,17.4909,0,U,51951,999,23892,.61582E-3,.15608E-3,0
MERIDIAN 10,2022-030A,2026-06-24T22:41:32.496864,2.00612785,.6786059,62.6784,139.9530,272.8511,17.6320,0,U,52145,999,3118,0,.171E-5,0
OMNI-L1,2022-033A,2026-06-25T03:24:16.819776,14.82775364,.0003888,97.8396,255.1646,252.5085,107.5704,0,U,52157,999,22863,.23678E-3,.1862E-4,0
ENMAP,2022-033C,2026-06-25T04:05:20.522688,14.74991966,.0001407,97.9792,258.3073,86.8934,273.2436,0,U,52159,999,22783,.38162E-5,-.24E-6,0
ARCSAT-1,2022-033E,2026-06-25T04:13:41.176992,15.53792879,.0005666,97.2755,268.5680,153.7883,206.3659,0,U,52161,999,23694,.2262E-3,.1443E-3,0
GLOBAL-18,2022-034B,2026-06-23T20:19:44.744160,15.46495004,.00034785,52.9804,224.8039,313.0227,47.0487,0,U,52196,999,23799,.29537059E-3,.1449E-3,0
GAOFEN-3 03,2022-035A,2026-06-25T04:59:43.857600,14.42215416,.0001476,98.4066,184.6723,101.3212,258.8144,0,U,52200,999,22200,-.18497E-4,-.104E-5,0
DAQI-1,2022-039A,2026-06-25T04:14:16.876608,14.57681906,.0002483,98.1478,114.8632,215.5165,144.5869,0,U,52257,999,22310,.86163E-4,.348E-5,0
BRO-6,2022-047AE,2026-06-25T04:53:01.149792,15.51050224,.0004355,97.3399,267.4144,50.8163,309.3476,0,U,52422,999,23239,.73909E-3,.43073E-3,0
JILIN-1 GAOFEN 3D27,2022-048B,2026-06-25T00:39:39.989088,15.77109869,.0001762,97.5708,290.6832,305.4686,54.6415,0,U,52444,999,23071,.95696E-3,.157986E-2,0
JILIN-1 GAOFEN 3D28,2022-048C,2026-06-25T03:18:00.672192,15.80569896,.0001569,97.5649,290.9873,254.3628,105.7466,0,U,52445,999,23078,.10197E-2,.197449E-2,0
VIGORIDE-3,2022-057AE,2026-06-25T00:18:54.036288,15.27352682,.0009773,97.6607,316.1952,96.7804,263.4547,0,U,52760,999,22635,.21761E-3,.5757E-4,0
ION SCV-006,2022-057AF,2026-06-25T04:39:42.827616,15.45467216,.0018254,97.6103,325.2013,86.7906,273.5430,0,U,52761,999,22735,.3022E-3,.14479E-3,0
SHERPA-AC1,2022-057AH,2026-06-24T22:45:07.690752,15.36361178,.0008749,97.6691,325.4985,70.0719,290.1466,0,U,52763,999,22689,.22399E-3,.7865E-4,0
OMNI-L2,2022-057AR,2026-06-25T03:51:10.572192,14.81389228,.0005231,97.4711,237.9831,305.2783,54.7941,0,U,52771,999,22157,.17204E-3,.1298E-4,0
STEP CUBE LAB-II,2022-065D,2026-06-25T04:54:40.018176,14.63313014,.0008742,98.2236,320.0820,9.1227,351.0132,0,U,52897,999,21267,.11181E-3,.529E-5,0
RANDEV,2022-065E,2026-06-25T03:14:43.465056,14.63700692,.0008101,98.2223,320.3680,10.2732,349.8634,0,U,52898,999,21241,.11258E-3,.538E-5,0
SNUGLITE-II,2022-065F,2026-06-25T03:53:45.262752,14.64360830,.0007448,98.2211,320.9790,9.3131,350.8208,0,U,52899,999,21216,.17938E-3,.899E-5,0
MIMAN,2022-065G,2026-06-23T23:04:30.404064,14.61849630,.00077539,98.2268,317.4098,15.0292,345.1138,0,U,52900,999,21143,.92388357E-4,.414E-5,0
STARLINK-4362,2022-077A,2026-06-25T04:10:47.887104,15.05662811,.0001021,97.3165,354.7208,100.8948,259.2395,0,U,53043,999,21708,-.78887E-4,-.1195E-4,0
LARES-2,2022-080A,2026-06-23T06:33:33.616800,6.38965134,.0005276,70.1600,303.2417,334.6855,25.3415,0,U,53105,999,9205,0,-.27E-6,0
GREENCUBE (IO-117),2022-080E,2026-06-23T17:18:16.788960,6.42583215,.00089266,70.1445,295.9726,288.1418,71.8270,0,U,53109,999,9248,0,-.3E-7,0
STARLINK-4410,2022-084R,2026-06-25T04:00:00.999072,15.34881201,.0001403,97.6016,237.4719,75.4351,224.9585,0,U,53204,999,582,.95745E-2,.338236E-2,0
COSMOS 2558,2022-089A,2026-06-25T03:31:59.598048,15.76730483,.0001971,97.2253,280.5437,241.2966,118.8102,0,U,53323,999,21908,.85242E-3,.138053E-2,0
TECMS,2022-090A,2026-06-25T04:23:23.054208,15.21455621,.0004252,97.3139,244.0658,151.3244,208.8226,0,U,53346,999,21602,.17388E-3,.384E-4,0
DONGPO 02,2022-098J,2026-06-25T04:21:01.357344,15.76189263,.0003293,97.5524,308.0721,251.2491,108.8416,0,U,53452,999,21605,.85267E-3,.134842E-2,0
DONGPO 01,2022-098K,2026-06-25T04:23:57.297984,15.73837923,.000238,97.5589,308.5798,225.1266,134.9805,0,U,53453,999,21601,.81478E-3,.11613E-2,0
STARLINK-4400,2022-099D,2026-06-24T02:09:42.341760,15.05657325,.00007624,97.3286,293.7814,101.6852,258.4461,0,U,53468,999,21198,-.25738934E-4,-.428E-5,0
STARLINK-4621,2022-105AE,2026-06-25T03:44:54.760704,15.05510469,.0002344,97.3177,54.8023,125.4852,234.6595,0,U,53676,999,20940,.19387E-2,.27922E-3,0
